ONEWEB-0228             
1 48780U 21045P   24048.07135687 -.00000023  00000+0 -94298-4 0  9996
2 48780  87.8941  68.5835 0002022  90.4693 269.6669 13.15548282133558
